IRIDIUM 155             
1 43573U 18061E   25071.59234128 -.00000029  00000+0 -17277-4 0  9997
2 43573  86.3921 249.5258 0002044  83.3988 276.7440 14.34217162347192
IRIDIUM 154             
1 43574U 18061F   25071.57331211  .00000137  00000+0  41800-4 0  9994
2 43574  86.3923 249.6445 0002026  93.2553 266.8874 14.34219034347249
IRIDIUM 163             
1 43575U 18061G   25071.55428678 -.00000017  00000+0 -12970-4 0  9992
2 43575  86.3922 249.5825 0002095  92.7145 267.4291 14.34217423347214
IRIDIUM 156             
1 43576U 18061H   25071.52891577 -.00000068  00000+0 -31504-4 0  9992
2 43576  86.3923 249.5999 0001953  79.6846 280.4570 14.34217072347206
IRIDIUM 164             
1 43577U 18061J   25071.57965654 -.00000025  00000+0 -16059-4 0  9997
2 43577  86.3924 249.6116 0001771  95.5597 264.5801 14.34217350347252
IRIDIUM 159             
1 43578U 18061K   25071.54794385  .00000008  00000+0 -43713-5 0  9994
2 43578  86.3922 249.5712 0002003  98.2932 261.8491 14.34217533347218
IRIDIUM 180             
1 43922U 19002A   25071.54744181 -.00000185  00000+0 -73140-4 0  9995
2 43922  86.4045 186.5118 0002153  96.2532 263.8909 14.34215618322826
IRIDIUM 176             
1 43923U 19002B   25071.59029625  .00000244  00000+0  34750-4 0  9998
2 43923  86.6167 186.4948 0002569 102.3992 257.7512 14.72229705331336
IRIDIUM 168             
1 43924U 19002C   25071.61086850 -.00000274  00000+0 -10483-3 0  9996
2 43924  86.4046 186.5496 0002098  98.8711 261.2723 14.34216386322811
IRIDIUM 173             
1 43925U 19002D   25071.59817641  .00000039  00000+0  69379-5 0  9991
2 43925  86.4041 186.4627 0002279  94.0340 266.1117 14.34214396322796
IRIDIUM 169             
1 43926U 19002E   25071.47176376  .00000767  00000+0  24435-3 0  9992
2 43926  86.4244 218.0886 0003429  74.3728 285.7849 14.38615344323848
IRIDIUM 172             
1 43927U 19002F   25071.59183749  .00000591  00000+0  20398-3 0  9997
2 43927  86.4036 186.4712 0002157  99.3937 260.7502 14.34215332322803
IRIDIUM 175             
1 43928U 19002G   25071.58508212  .00001735  00000+0  27110-3 0  9993
2 43928  86.1534 144.5430 0002283  67.1950 292.9507 14.72252007331325
IRIDIUM 171             
1 43929U 19002H   25071.57281145  .00000029  00000+0  31968-5 0  9999
2 43929  86.4050 186.7345 0001589  97.1942 262.9435 14.34217198322795
IRIDIUM 170             
1 43930U 19002J   25071.59648038  .00000480  00000+0  72138-4 0  9995
2 43930  86.6167 186.4973 0002083  85.0300 275.1155 14.72260399331345
IRIDIUM 167             
1 43931U 19002K   25071.35716645  .00000613  00000+0  21179-3 0  9996
2 43931  86.4042 186.5881 0002010  84.8296 275.3129 14.34219929322766
IRIDIUM 181             
1 56726U 23068S   25071.58069875  .00000284  00000+0  78243-4 0  9999
2 56726  86.4460 249.5767 0001668  84.1756 275.9635 14.43312363 95852
IRIDIUM 177             
1 56727U 23068T   25071.60361175  .00003014  00000+0  39331-3 0  9999
2 56727  86.2035 187.9316 0002237  88.4436 271.7042 14.80219930 98080
IRIDIUM 174             
1 56728U 23068U   25071.59818050  .00001834  00000+0  23802-3 0  9991
2 56728  86.2038 188.0585 0001855 103.6187 256.5240 14.80208750 98081
IRIDIUM 178             
1 56729U 23068V   25071.45754546  .00000184  00000+0  20692-4 0  9998
2 56729  86.5795 218.2523 0001596 120.9831 239.1547 14.80213462 98064
IRIDIUM 179             
1 56730U 23068W   25071.51972931  .00003012  00000+0  39301-3 0  9996
2 56730  86.6784 225.7317 0002026  94.5007 265.6446 14.80228895 98078
